ELYSIUM STAR 2 & LFF    
1 43760U 18099C   24160.89216502  .00048226  00000+0  18994-2 0  9997
2 43760  97.5168 228.4477 0004802 289.9549  70.1171 15.25436827301972
